STARLINK-6288           
1 56398U 23061AA  25282.06916994 -.00001966  00000+0 -13053-3 0  9994
2 56398  43.0049 288.6235 0001326 280.6134  79.4559 15.02518108134090
STARLINK-6277           
1 56399U 23061AB  25282.07469851 -.00000602  00000+0 -29519-4 0  9992
2 56399  43.0026 288.6640 0001449 279.1634  80.9045 15.02530809134099
STARLINK-6267           
1 56400U 23061AC  25282.06359262 -.00000218  00000+0 -10419-5 0  9991
2 56400  43.0047 288.5797 0001490 258.2737 101.7938 15.02543621134094
STARLINK-6256           
1 56401U 23061AD  25282.27106213 -.00001802  00000+0 -11836-3 0  9993
2 56401  43.0039 274.5447 0001145 271.4098  88.6613 15.02539064134276
STARLINK-6284           
1 56403U 23061AF  25282.06581245 -.00000413  00000+0 -15492-4 0  9994
2 56403  43.0035 288.5822 0001377 268.6667  91.4018 15.02536148134094
STARLINK-6287           
1 56404U 23061AG  25282.32062763  .00000208  00000+0  30491-4 0  9999
2 56404  43.0051 287.0662 0001259 269.0334  91.0364 15.02533871134139
STARLINK-6285           
1 56405U 23061AH  25282.32617605 -.00000330  00000+0 -93607-5 0  9998
2 56405  43.0060 287.1097 0001305 271.6290  88.4403 15.02534959134137
STARLINK-6283           
1 56406U 23061AJ  25282.31174454  .00000095  00000+0  22092-4 0  9993
2 56406  43.0041 286.9968 0001090 278.8537  81.2182 15.02540835134130
STARLINK-6282           
1 56407U 23061AK  25282.32285342 -.00001049  00000+0 -62574-4 0  9995
2 56407  43.0033 287.0844 0001038 269.3272  90.7451 15.02528408134136
STARLINK-6289           
1 56408U 23061AL  25282.03806481  .00000064  00000+0  19795-4 0  9998
2 56408  43.0031 288.3749 0001081 266.3996  93.6723 15.02536016134094
STARLINK-6241           
1 56409U 23061AM  25282.05138574  .00000000  00000+0  15066-4 0  9999
2 56409  43.0042 288.4868 0001232 270.7324  89.3377 15.02534444134092
STARLINK-6281           
1 56410U 23061AN  25282.30287134 -.00000047  00000+0  11556-4 0  9998
2 56410  43.0038 286.9308 0001067 268.8894  91.1826 15.02534510134136
STARLINK-6279           
1 56411U 23061AP  25282.04916783 -.00000997  00000+0 -58738-4 0  9997
2 56411  43.0037 288.4681 0001132 268.9616  91.1096 15.02534693134099
STARLINK-6278           
1 56412U 23061AQ  25282.29732300 -.00001185  00000+0 -72662-4 0  9998
2 56412  43.0035 286.8852 0000939 273.8251  86.2484 15.02529808134137
STARLINK-6258           
1 56413U 23061AR  25282.30619706 -.00000481  00000+0 -20524-4 0  9993
2 56413  43.0045 286.9547 0001234 263.1352  96.9350 15.02532783134130
STARLINK-5136           
1 56414U 23061AS  25282.29288487 -.00001084  00000+0 -65191-4 0  9999
2 56414  43.0033 286.8549 0001064 269.2222  90.8498 15.02529203134132
