[{"OBJECT_NAME":"STARLINK-6288","OBJECT_ID":"2023-061AA","EPOCH":"2025-10-09T01:39:36.282816","MEAN_MOTION":15.02518108,"ECCENTRICITY":0.00013262,"INCLINATION":43.0049,"RA_OF_ASC_NODE":288.6235,"ARG_OF_PERICENTER":280.6134,"MEAN_ANOMALY":79.4559,"EPHEMERIS_TYPE":0,"CLASSIFICATION_TYPE":"U","NORAD_CAT_ID":56398,"ELEMENT_SET_NO":999,"REV_AT_EPOCH":13409,"BSTAR":-0.00013053208,"MEAN_MOTION_DOT":-1.966e-5,"MEAN_MOTION_DDOT":0},{"OBJECT_NAME":"STARLINK-6277","OBJECT_ID":"2023-061AB","EPOCH":"2025-10-09T01:47:33.951264","MEAN_MOTION":15.02530809,"ECCENTRICITY":0.00014499,"INCLINATION":43.0026,"RA_OF_ASC_NODE":288.664,"ARG_OF_PERICENTER":279.1634,"MEAN_ANOMALY":80.9045,"EPHEMERIS_TYPE":0,"CLASSIFICATION_TYPE":"U","NORAD_CAT_ID":56399,"ELEMENT_SET_NO":999,"REV_AT_EPOCH":13409,"BSTAR":-2.9518823e-5,"MEAN_MOTION_DOT":-6.02e-6,"MEAN_MOTION_DDOT":0},{"OBJECT_NAME":"STARLINK-6267","OBJECT_ID":"2023-061AC","EPOCH":"2025-10-09T01:31:34.402368","MEAN_MOTION":15.02543621,"ECCENTRICITY":0.000149,"INCLINATION":43.0047,"RA_OF_ASC_NODE":288.5797,"ARG_OF_PERICENTER":258.2737,"MEAN_ANOMALY":101.7938,"EPHEMERIS_TYPE":0,"CLASSIFICATION_TYPE":"U","NORAD_CAT_ID":56400,"ELEMENT_SET_NO":999,"REV_AT_EPOCH":13409,"BSTAR":-1.0419e-6,"MEAN_MOTION_DOT":-2.18e-6,"MEAN_MOTION_DDOT":0},{"OBJECT_NAME":"STARLINK-6256","OBJECT_ID":"2023-061AD","EPOCH":"2025-10-09T06:30:19.768032","MEAN_MOTION":15.02539064,"ECCENTRICITY":0.00011456,"INCLINATION":43.0039,"RA_OF_ASC_NODE":274.5447,"ARG_OF_PERICENTER":271.4098,"MEAN_ANOMALY":88.6613,"EPHEMERIS_TYPE":0,"CLASSIFICATION_TYPE":"U","NORAD_CAT_ID":56401,"ELEMENT_SET_NO":999,"REV_AT_EPOCH":13427,"BSTAR":-0.00011836419,"MEAN_MOTION_DOT":-1.802e-5,"MEAN_MOTION_DDOT":0},{"OBJECT_NAME":"STARLINK-6284","OBJECT_ID":"2023-061AF","EPOCH":"2025-10-09T01:34:46.195680","MEAN_MOTION":15.02536148,"ECCENTRICITY":0.00013776,"INCLINATION":43.0035,"RA_OF_ASC_NODE":288.5822,"ARG_OF_PERICENTER":268.6667,"MEAN_ANOMALY":91.4018,"EPHEMERIS_TYPE":0,"CLASSIFICATION_TYPE":"U","NORAD_CAT_ID":56403,"ELEMENT_SET_NO":999,"REV_AT_EPOCH":13409,"BSTAR":-1.5492309e-5,"MEAN_MOTION_DOT":-4.13e-6,"MEAN_MOTION_DDOT":0},{"OBJECT_NAME":"STARLINK-6287","OBJECT_ID":"2023-061AG","EPOCH":"2025-10-09T07:41:42.227232","MEAN_MOTION":15.02533871,"ECCENTRICITY":0.00012592,"INCLINATION":43.0051,"RA_OF_ASC_NODE":287.0662,"ARG_OF_PERICENTER":269.0334,"MEAN_ANOMALY":91.0364,"EPHEMERIS_TYPE":0,"CLASSIFICATION_TYPE":"U","NORAD_CAT_ID":56404,"ELEMENT_SET_NO":999,"REV_AT_EPOCH":13413,"BSTAR":3.0491083e-5,"MEAN_MOTION_DOT":2.08e-6,"MEAN_MOTION_DDOT":0},{"OBJECT_NAME":"STARLINK-6285","OBJECT_ID":"2023-061AH","EPOCH":"2025-10-09T07:49:41.610720","MEAN_MOTION":15.02534959,"ECCENTRICITY":0.00013056,"INCLINATION":43.006,"RA_OF_ASC_NODE":287.1097,"ARG_OF_PERICENTER":271.629,"MEAN_ANOMALY":88.4403,"EPHEMERIS_TYPE":0,"CLASSIFICATION_TYPE":"U","NORAD_CAT_ID":56405,"ELEMENT_SET_NO":999,"REV_AT_EPOCH":13413,"BSTAR":-9.360654e-6,"MEAN_MOTION_DOT":-3.3e-6,"MEAN_MOTION_DDOT":0},{"OBJECT_NAME":"STARLINK-6283","OBJECT_ID":"2023-061AJ","EPOCH":"2025-10-09T07:28:54.728256","MEAN_MOTION":15.02540835,"ECCENTRICITY":0.00010902,"INCLINATION":43.0041,"RA_OF_ASC_NODE":286.9968,"ARG_OF_PERICENTER":278.8537,"MEAN_ANOMALY":81.2182,"EPHEMERIS_TYPE":0,"CLASSIFICATION_TYPE":"U","NORAD_CAT_ID":56406,"ELEMENT_SET_NO":999,"REV_AT_EPOCH":13413,"BSTAR":2.2092181e-5,"MEAN_MOTION_DOT":9.5e-7,"MEAN_MOTION_DDOT":0},{"OBJECT_NAME":"STARLINK-6282","OBJECT_ID":"2023-061AK","EPOCH":"2025-10-09T07:44:54.535488","MEAN_MOTION":15.02528408,"ECCENTRICITY":0.00010387,"INCLINATION":43.0033,"RA_OF_ASC_NODE":287.0844,"ARG_OF_PERICENTER":269.3272,"MEAN_ANOMALY":90.7451,"EPHEMERIS_TYPE":0,"CLASSIFICATION_TYPE":"U","NORAD_CAT_ID":56407,"ELEMENT_SET_NO":999,"REV_AT_EPOCH":13413,"BSTAR":-6.2574046e-5,"MEAN_MOTION_DOT":-1.049e-5,"MEAN_MOTION_DDOT":0},{"OBJECT_NAME":"STARLINK-6289","OBJECT_ID":"2023-061AL","EPOCH":"2025-10-09T00:54:48.799584","MEAN_MOTION":15.02536016,"ECCENTRICITY":0.00010813,"INCLINATION":43.0031,"RA_OF_ASC_NODE":288.3749,"ARG_OF_PERICENTER":266.3996,"MEAN_ANOMALY":93.6723,"EPHEMERIS_TYPE":0,"CLASSIFICATION_TYPE":"U","NORAD_CAT_ID":56408,"ELEMENT_SET_NO":999,"REV_AT_EPOCH":13409,"BSTAR":1.9795369e-5,"MEAN_MOTION_DOT":6.4e-7,"MEAN_MOTION_DDOT":0},{"OBJECT_NAME":"STARLINK-6241","OBJECT_ID":"2023-061AM","EPOCH":"2025-10-09T01:13:59.727936","MEAN_MOTION":15.02534444,"ECCENTRICITY":0.00012328,"INCLINATION":43.0042,"RA_OF_ASC_NODE":288.4868,"ARG_OF_PERICENTER":270.7324,"MEAN_ANOMALY":89.3377,"EPHEMERIS_TYPE":0,"CLASSIFICATION_TYPE":"U","NORAD_CAT_ID":56409,"ELEMENT_SET_NO":999,"REV_AT_EPOCH":13409,"BSTAR":1.5066027e-5,"MEAN_MOTION_DOT":0,"MEAN_MOTION_DDOT":0},{"OBJECT_NAME":"STARLINK-6281","OBJECT_ID":"2023-061AN","EPOCH":"2025-10-09T07:16:08.083776","MEAN_MOTION":15.0253451,"ECCENTRICITY":0.00010674,"INCLINATION":43.0038,"RA_OF_ASC_NODE":286.9308,"ARG_OF_PERICENTER":268.8894,"MEAN_ANOMALY":91.1826,"EPHEMERIS_TYPE":0,"CLASSIFICATION_TYPE":"U","NORAD_CAT_ID":56410,"ELEMENT_SET_NO":999,"REV_AT_EPOCH":13413,"BSTAR":1.1556e-5,"MEAN_MOTION_DOT":-4.7e-7,"MEAN_MOTION_DDOT":0},{"OBJECT_NAME":"STARLINK-6279","OBJECT_ID":"2023-061AP","EPOCH":"2025-10-09T01:10:48.100512","MEAN_MOTION":15.02534693,"ECCENTRICITY":0.00011328,"INCLINATION":43.0037,"RA_OF_ASC_NODE":288.4681,"ARG_OF_PERICENTER":268.9616,"MEAN_ANOMALY":91.1096,"EPHEMERIS_TYPE":0,"CLASSIFICATION_TYPE":"U","NORAD_CAT_ID":56411,"ELEMENT_SET_NO":999,"REV_AT_EPOCH":13409,"BSTAR":-5.8737693e-5,"MEAN_MOTION_DOT":-9.97e-6,"MEAN_MOTION_DDOT":0},{"OBJECT_NAME":"STARLINK-6278","OBJECT_ID":"2023-061AQ","EPOCH":"2025-10-09T07:08:08.707200","MEAN_MOTION":15.02529808,"ECCENTRICITY":9.392e-5,"INCLINATION":43.0035,"RA_OF_ASC_NODE":286.8852,"ARG_OF_PERICENTER":273.8251,"MEAN_ANOMALY":86.2484,"EPHEMERIS_TYPE":0,"CLASSIFICATION_TYPE":"U","NORAD_CAT_ID":56412,"ELEMENT_SET_NO":999,"REV_AT_EPOCH":13413,"BSTAR":-7.2661593e-5,"MEAN_MOTION_DOT":-1.185e-5,"MEAN_MOTION_DDOT":0},{"OBJECT_NAME":"STARLINK-6258","OBJECT_ID":"2023-061AR","EPOCH":"2025-10-09T07:20:55.425984","MEAN_MOTION":15.02532783,"ECCENTRICITY":0.0001234,"INCLINATION":43.0045,"RA_OF_ASC_NODE":286.9547,"ARG_OF_PERICENTER":263.1352,"MEAN_ANOMALY":96.935,"EPHEMERIS_TYPE":0,"CLASSIFICATION_TYPE":"U","NORAD_CAT_ID":56413,"ELEMENT_SET_NO":999,"REV_AT_EPOCH":13413,"BSTAR":-2.0523658e-5,"MEAN_MOTION_DOT":-4.81e-6,"MEAN_MOTION_DDOT":0},{"OBJECT_NAME":"STARLINK-5136","OBJECT_ID":"2023-061AS","EPOCH":"2025-10-09T07:01:45.252768","MEAN_MOTION":15.02529203,"ECCENTRICITY":0.00010649,"INCLINATION":43.0033,"RA_OF_ASC_NODE":286.8549,"ARG_OF_PERICENTER":269.2222,"MEAN_ANOMALY":90.8498,"EPHEMERIS_TYPE":0,"CLASSIFICATION_TYPE":"U","NORAD_CAT_ID":56414,"ELEMENT_SET_NO":999,"REV_AT_EPOCH":13413,"BSTAR":-6.5191002e-5,"MEAN_MOTION_DOT":-1.084e-5,"MEAN_MOTION_DDOT":0}]
